FENGYUN 1C DEB          
1 31487U 99025BWB 26087.52145683  .00001779  00000+0  12205-2 0  9990
2 31487 102.4163 297.8374 0120175  51.8860 339.5808 13.98235881958901
FENGYUN 1C DEB          
1 31491U 99025BWE 26087.21744435  .00003311  00000+0  16179-2 0  9999
2 31491  99.3018   5.7570 0051955 331.6615  28.1735 14.18022183652227
FENGYUN 1C DEB          
1 31492U 99025BWF 26085.46109176  .00016497  00000+0  22957-2 0  9992
2 31492  98.8622 265.9984 0055656  46.1298 314.4487 14.76811358980345
FENGYUN 1C DEB          
1 31493U 99025BWG 26081.13100825  .00000835  00000+0  64296-3 0  9997
2 31493 100.1452  41.4448 0117169 274.8700  83.9087 13.93263513612508
FENGYUN 1C DEB          
1 31495U 99025BWJ 26084.93144995  .00002500  00000+0  98552-3 0  9999
2 31495  99.1134 327.8968 0024823 241.4357 118.4325 14.29934735648659
FENGYUN 1C DEB          
1 31497U 99025BWL 26084.72705711  .00000880  00000+0  25286-3 0  9990
2 31497  98.3836  70.9795 0168331  33.7607 145.4242 14.39399191990366
FENGYUN 1C DEB          
1 31498U 99025BWM 26086.36237947  .00001495  00000+0  12933-2 0  9991
2 31498  98.4934  51.6723 0216506 222.4715 135.9510 13.77571767941741
FENGYUN 1C DEB          
1 31509U 99025BWY 26087.29600888  .00002271  00000+0  14529-2 0  9991
2 31509  99.0219 209.3380 0195535 289.0431  68.9643 13.95515817954346
FENGYUN 1C DEB          
1 31510U 99025BWZ 26085.24312681  .00001055  00000+0  46697-3 0  9998
2 31510  98.5581  86.7938 0038043  30.0748  33.5504 14.24834793979616
FENGYUN 1C DEB          
1 31511U 99025BXA 26085.94071376  .00001513  00000+0  58465-3 0  9994
2 31511  99.0750 263.6816 0106370 284.4391  74.5005 14.28689346972889
FENGYUN 1C DEB          
1 31512U 99025BXB 26087.50520998  .00001415  00000+0  37710-3 0  9999
2 31512  98.7972 351.5593 0142373 190.8369 346.8505 14.44322452670288
FENGYUN 1C DEB          
1 31513U 99025BXC 26087.25224720  .00005888  00000+0  21182-2 0  9999
2 31513  98.8576 191.4005 0030182 173.8015 186.3548 14.33878092743809
FENGYUN 1C DEB          
1 31514U 99025BXD 26087.72193255  .00002891  00000+0  13172-2 0  9991
2 31514  99.2450 358.4381 0051179 174.5316 185.6429 14.21803455708303
FENGYUN 1C DEB          
1 31516U 99025BXF 26086.30366756  .00000696  00000+0  28024-3 0  9998
2 31516  98.8375 208.0212 0147323 295.8896  90.7527 14.25656500979829
