[{"OBJECT_NAME":"FENGYUN 1C DEB","OBJECT_ID":"1999-025BWB","EPOCH":"2026-03-28T12:30:53.870112","MEAN_MOTION":13.98235881,"ECCENTRICITY":0.0120175,"INCLINATION":102.4163,"RA_OF_ASC_NODE":297.8374,"ARG_OF_PERICENTER":51.886,"MEAN_ANOMALY":339.5808,"EPHEMERIS_TYPE":0,"CLASSIFICATION_TYPE":"U","NORAD_CAT_ID":31487,"ELEMENT_SET_NO":999,"REV_AT_EPOCH":95890,"BSTAR":0.0012205,"MEAN_MOTION_DOT":1.779e-5,"MEAN_MOTION_DDOT":0},{"OBJECT_NAME":"FENGYUN 1C DEB","OBJECT_ID":"1999-025BWE","EPOCH":"2026-03-28T05:13:07.191840","MEAN_MOTION":14.18022183,"ECCENTRICITY":0.0051955,"INCLINATION":99.3018,"RA_OF_ASC_NODE":5.757,"ARG_OF_PERICENTER":331.6615,"MEAN_ANOMALY":28.1735,"EPHEMERIS_TYPE":0,"CLASSIFICATION_TYPE":"U","NORAD_CAT_ID":31491,"ELEMENT_SET_NO":999,"REV_AT_EPOCH":65222,"BSTAR":0.0016179,"MEAN_MOTION_DOT":3.311e-5,"MEAN_MOTION_DDOT":0},{"OBJECT_NAME":"FENGYUN 1C DEB","OBJECT_ID":"1999-025BWF","EPOCH":"2026-03-26T11:03:58.328064","MEAN_MOTION":14.76811358,"ECCENTRICITY":0.00556569,"INCLINATION":98.8622,"RA_OF_ASC_NODE":265.9984,"ARG_OF_PERICENTER":46.1298,"MEAN_ANOMALY":314.4487,"EPHEMERIS_TYPE":0,"CLASSIFICATION_TYPE":"U","NORAD_CAT_ID":31492,"ELEMENT_SET_NO":999,"REV_AT_EPOCH":98034,"BSTAR":0.0022956811,"MEAN_MOTION_DOT":0.00016497,"MEAN_MOTION_DDOT":0},{"OBJECT_NAME":"FENGYUN 1C DEB","OBJECT_ID":"1999-025BWG","EPOCH":"2026-03-22T03:08:39.112800","MEAN_MOTION":13.93263513,"ECCENTRICITY":0.01171694,"INCLINATION":100.1452,"RA_OF_ASC_NODE":41.4448,"ARG_OF_PERICENTER":274.87,"MEAN_ANOMALY":83.9087,"EPHEMERIS_TYPE":0,"CLASSIFICATION_TYPE":"U","NORAD_CAT_ID":31493,"ELEMENT_SET_NO":999,"REV_AT_EPOCH":61250,"BSTAR":0.00064295947,"MEAN_MOTION_DOT":8.35e-6,"MEAN_MOTION_DDOT":0},{"OBJECT_NAME":"FENGYUN 1C DEB","OBJECT_ID":"1999-025BWJ","EPOCH":"2026-03-25T22:21:17.275680","MEAN_MOTION":14.29934735,"ECCENTRICITY":0.0024823,"INCLINATION":99.1134,"RA_OF_ASC_NODE":327.8968,"ARG_OF_PERICENTER":241.4357,"MEAN_ANOMALY":118.4325,"EPHEMERIS_TYPE":0,"CLASSIFICATION_TYPE":"U","NORAD_CAT_ID":31495,"ELEMENT_SET_NO":999,"REV_AT_EPOCH":64865,"BSTAR":0.00098552,"MEAN_MOTION_DOT":2.5e-5,"MEAN_MOTION_DDOT":0},{"OBJECT_NAME":"FENGYUN 1C DEB","OBJECT_ID":"1999-025BWL","EPOCH":"2026-03-25T17:26:57.734304","MEAN_MOTION":14.39399191,"ECCENTRICITY":0.01683316,"INCLINATION":98.3836,"RA_OF_ASC_NODE":70.9795,"ARG_OF_PERICENTER":33.7607,"MEAN_ANOMALY":145.4242,"EPHEMERIS_TYPE":0,"CLASSIFICATION_TYPE":"U","NORAD_CAT_ID":31497,"ELEMENT_SET_NO":999,"REV_AT_EPOCH":99036,"BSTAR":0.00025285629,"MEAN_MOTION_DOT":8.8e-6,"MEAN_MOTION_DDOT":0},{"OBJECT_NAME":"FENGYUN 1C DEB","OBJECT_ID":"1999-025BWM","EPOCH":"2026-03-27T08:41:49.586208","MEAN_MOTION":13.77571767,"ECCENTRICITY":0.0216506,"INCLINATION":98.4934,"RA_OF_ASC_NODE":51.6723,"ARG_OF_PERICENTER":222.4715,"MEAN_ANOMALY":135.951,"EPHEMERIS_TYPE":0,"CLASSIFICATION_TYPE":"U","NORAD_CAT_ID":31498,"ELEMENT_SET_NO":999,"REV_AT_EPOCH":94174,"BSTAR":0.0012933,"MEAN_MOTION_DOT":1.495e-5,"MEAN_MOTION_DDOT":0},{"OBJECT_NAME":"FENGYUN 1C DEB","OBJECT_ID":"1999-025BWY","EPOCH":"2026-03-28T07:06:15.167232","MEAN_MOTION":13.95515817,"ECCENTRICITY":0.0195535,"INCLINATION":99.0219,"RA_OF_ASC_NODE":209.338,"ARG_OF_PERICENTER":289.0431,"MEAN_ANOMALY":68.9643,"EPHEMERIS_TYPE":0,"CLASSIFICATION_TYPE":"U","NORAD_CAT_ID":31509,"ELEMENT_SET_NO":999,"REV_AT_EPOCH":95434,"BSTAR":0.0014529,"MEAN_MOTION_DOT":2.271e-5,"MEAN_MOTION_DDOT":0},{"OBJECT_NAME":"FENGYUN 1C DEB","OBJECT_ID":"1999-025BWZ","EPOCH":"2026-03-26T05:50:06.156384","MEAN_MOTION":14.24834793,"ECCENTRICITY":0.0038043,"INCLINATION":98.5581,"RA_OF_ASC_NODE":86.7938,"ARG_OF_PERICENTER":30.0748,"MEAN_ANOMALY":33.5504,"EPHEMERIS_TYPE":0,"CLASSIFICATION_TYPE":"U","NORAD_CAT_ID":31510,"ELEMENT_SET_NO":999,"REV_AT_EPOCH":97961,"BSTAR":0.00046697,"MEAN_MOTION_DOT":1.055e-5,"MEAN_MOTION_DDOT":0},{"OBJECT_NAME":"FENGYUN 1C DEB","OBJECT_ID":"1999-025BXA","EPOCH":"2026-03-26T22:34:37.668864","MEAN_MOTION":14.28689346,"ECCENTRICITY":0.010637,"INCLINATION":99.075,"RA_OF_ASC_NODE":263.6816,"ARG_OF_PERICENTER":284.4391,"MEAN_ANOMALY":74.5005,"EPHEMERIS_TYPE":0,"CLASSIFICATION_TYPE":"U","NORAD_CAT_ID":31511,"ELEMENT_SET_NO":999,"REV_AT_EPOCH":97288,"BSTAR":0.00058465,"MEAN_MOTION_DOT":1.513e-5,"MEAN_MOTION_DDOT":0},{"OBJECT_NAME":"FENGYUN 1C DEB","OBJECT_ID":"1999-025BXB","EPOCH":"2026-03-28T12:07:30.142272","MEAN_MOTION":14.44322452,"ECCENTRICITY":0.0142373,"INCLINATION":98.7972,"RA_OF_ASC_NODE":351.5593,"ARG_OF_PERICENTER":190.8369,"MEAN_ANOMALY":346.8505,"EPHEMERIS_TYPE":0,"CLASSIFICATION_TYPE":"U","NORAD_CAT_ID":31512,"ELEMENT_SET_NO":999,"REV_AT_EPOCH":67028,"BSTAR":0.0003771,"MEAN_MOTION_DOT":1.415e-5,"MEAN_MOTION_DDOT":0},{"OBJECT_NAME":"FENGYUN 1C DEB","OBJECT_ID":"1999-025BXC","EPOCH":"2026-03-28T06:03:14.158080","MEAN_MOTION":14.33878092,"ECCENTRICITY":0.0030182,"INCLINATION":98.8576,"RA_OF_ASC_NODE":191.4005,"ARG_OF_PERICENTER":173.8015,"MEAN_ANOMALY":186.3548,"EPHEMERIS_TYPE":0,"CLASSIFICATION_TYPE":"U","NORAD_CAT_ID":31513,"ELEMENT_SET_NO":999,"REV_AT_EPOCH":74380,"BSTAR":0.0021182,"MEAN_MOTION_DOT":5.888e-5,"MEAN_MOTION_DDOT":0},{"OBJECT_NAME":"FENGYUN 1C DEB","OBJECT_ID":"1999-025BXD","EPOCH":"2026-03-28T17:19:34.972320","MEAN_MOTION":14.21803455,"ECCENTRICITY":0.0051179,"INCLINATION":99.245,"RA_OF_ASC_NODE":358.4381,"ARG_OF_PERICENTER":174.5316,"MEAN_ANOMALY":185.6429,"EPHEMERIS_TYPE":0,"CLASSIFICATION_TYPE":"U","NORAD_CAT_ID":31514,"ELEMENT_SET_NO":999,"REV_AT_EPOCH":70830,"BSTAR":0.0013171997,"MEAN_MOTION_DOT":2.891e-5,"MEAN_MOTION_DDOT":0},{"OBJECT_NAME":"FENGYUN 1C DEB","OBJECT_ID":"1999-025BXF","EPOCH":"2026-03-27T07:17:16.877184","MEAN_MOTION":14.256565,"ECCENTRICITY":0.0147323,"INCLINATION":98.8375,"RA_OF_ASC_NODE":208.0212,"ARG_OF_PERICENTER":295.8896,"MEAN_ANOMALY":90.7527,"EPHEMERIS_TYPE":0,"CLASSIFICATION_TYPE":"U","NORAD_CAT_ID":31516,"ELEMENT_SET_NO":999,"REV_AT_EPOCH":97982,"BSTAR":0.00028024,"MEAN_MOTION_DOT":6.96e-6,"MEAN_MOTION_DDOT":0}]
